NORAD_CAT_ID,OBJECT_NAME,OBJECT_TYPE,EPOCH,MEAN_MOTION,ECCENTRICITY,INCLINATION,RA_OF_ASC_NODE,ARG_OF_PERICENTER,MEAN_ANOMALY,BSTAR,MEAN_MOTION_DOT,MEAN_MOTION_DDOT,TLE_LINE0,TLE_LINE1,TLE_LINE2,SEMIMAJOR_AXIS,PERIOD,APOGEE,PERIGEE,DECAYED
54781.0,STARLINK-5443,PAYLOAD,2023-05-15 22:36:46,15.07211785,0.0001207,53.2179,327.3368,89.9632,270.1498,0.00012368,1.6e-05,0.0,0 STARLINK-5443,1 54781U 22175Z   23135.94220208  .00001600  00000-0  12368-3 0  9993,2 54781  53.2179 327.3368 0001207  89.9632 270.1498 15.07211785 22667,6922.862,95.541,545.562,543.891,0.0
54781.0,STARLINK-5443,PAYLOAD,2023-05-16 12:56:10,15.07203925,0.000134,53.2169,324.6655,79.6722,280.4421,8.2033e-05,9.66e-06,0.0,0 STARLINK-5443,1 54781U 22175Z   23136.53901371  .00000966  00000-0  82033-4 0  9997,2 54781  53.2169 324.6655 0001340  79.6722 280.4421 15.07203925 24916,6922.886,95.541,545.678,543.823,0.0
54781.0,STARLINK-5443,PAYLOAD,2023-05-16 19:18:07,15.07207652,0.0001138,53.2172,323.4778,82.8952,277.2168,0.00011041,1.398e-05,0.0,0 STARLINK-5443,1 54781U 22175Z   23136.80425853  .00001398  00000-0  11041-3 0  9993,2 54781  53.2172 323.4778 0001138  82.8952 277.2168 15.07207652 24956,6922.874,95.541,545.527,543.952,0.0
54781.0,STARLINK-5443,PAYLOAD,2023-05-17 03:15:35,15.07196898,0.0001215,53.2178,321.9929,85.8529,274.2602,1.9438e-05,1.3e-07,0.0,0 STARLINK-5443,1 54781U 22175Z   23137.13582628  .00000013  00000-0  19438-4 0  9996,2 54781  53.2178 321.9929 0001215  85.8529 274.2602 15.07196898 22847,6922.907,95.542,545.613,543.931,0.0
54781.0,STARLINK-5443,PAYLOAD,2023-05-17 19:10:28,15.07207994,0.0001066,53.2172,319.0231,87.3355,272.7759,4.221e-05,3.59e-06,0.0,0 STARLINK-5443,1 54781U 22175Z   23137.79893649  .00000359  00000-0  42210-4 0  9993,2 54781  53.2172 319.0231 0001066  87.3355 272.7759 15.07207994 22940,6922.873,95.541,545.476,544.0,0.0
54781.0,STARLINK-5443,PAYLOAD,2023-05-17 22:21:24,15.07257107,0.0001027,53.2171,318.4294,108.3189,251.7914,0.00080369,0.00011988,0.0,0 STARLINK-5443,1 54781U 22175Z   23137.93153379  .00011988  00000-0  80369-3 0  9994,2 54781  53.2171 318.4294 0001027 108.3189 251.7914 15.07257107 25121,6922.723,95.538,545.299,543.877,0.0
54781.0,STARLINK-5443,PAYLOAD,2023-05-17 23:56:51,15.07299933,0.0001223,53.2171,318.1323,90.8806,269.2326,0.0014197,0.00021449,0.0,0 STARLINK-5443,1 54781U 22175Z   23137.99782269  .00021449  00000-0  14197-2 0  9994,2 54781  53.2171 318.1323 0001223  90.8806 269.2326 15.07299933 22974,6922.592,95.535,545.303,543.61,0.0
54781.0,STARLINK-5443,PAYLOAD,2023-05-18 12:40:18,15.07734044,0.0002448,53.217,315.7546,71.9003,288.2255,0.0067173,0.00104997,0.0,0 STARLINK-5443,1 54781U 22175Z   23138.52798776  .00104997  00000-0  67173-2 0  9996,2 54781  53.2170 315.7546 0002448  71.9003 288.2255 15.07734044 23051,6921.263,95.508,544.822,541.434,0.0
54781.0,STARLINK-5443,PAYLOAD,2023-05-18 19:01:47,15.0813724,7.01e-05,53.217,314.5649,54.6597,305.446,0.011428,0.00182809,0.0,0 STARLINK-5443,1 54781U 22175Z   23138.79291029  .00182809  00000-0  11428-1 0  9993,2 54781  53.2170 314.5649 0000701  54.6597 305.4460 15.08137240 23098,6920.029,95.482,542.379,541.409,0.0
54781.0,STARLINK-5443,PAYLOAD,2023-05-18 22:12:35,15.08233229,9.66e-05,53.2169,313.9707,84.0212,276.089,0.012024,0.00193144,0.0,0 STARLINK-5443,1 54781U 22175Z   23138.92541062  .00193144  00000-0  12024-1 0  9990,2 54781  53.2169 313.9707 0000966  84.0212 276.0890 15.08233229 25274,6919.736,95.476,542.269,540.932,0.0
54781.0,STARLINK-5443,PAYLOAD,2023-05-19 06:00:00,15.08826157,0.0001267,53.2166,312.5145,92.3941,231.183,0.00020909,3.04e-05,0.0,0 STARLINK-5443,1 54781U 22175Z   23139.25001157  .00003040  00000-0  20909-3 0  9991,2 54781  53.2166 312.5145 0001267  92.3941 231.1830 15.08826157 23168,6917.923,95.438,540.664,538.911,0.0
54781.0,STARLINK-5443,PAYLOAD,2023-05-19 22:00:01,15.08808436,0.0001273,53.2163,309.5232,81.5632,265.2388,0.0025753,0.000409,0.0,0 STARLINK-5443,1 54781U 22175Z   23139.91668981  .00040900  00000-0  25753-2 0  9995,2 54781  53.2163 309.5232 0001273  81.5632 265.2388 15.08808436  1300,6917.977,95.44,540.723,538.961,0.0
54781.0,STARLINK-5443,PAYLOAD,2023-05-20 14:00:01,15.08871577,0.0001257,53.2165,306.5292,91.77,278.1292,-0.0023029,-0.00036783,0.0,0 STARLINK-5443,1 54781U 22175Z   23140.58334491 -.00036783  00000-0 -23029-2 0  9996,2 54781  53.2165 306.5292 0001257  91.7700 278.1292 15.08871577 23369,6917.784,95.436,540.518,538.779,0.0
54781.0,STARLINK-5443,PAYLOAD,2023-05-20 18:43:34,15.08855994,0.0001715,53.2162,305.6455,101.8715,258.2469,0.0010065,0.00015774,0.0,0 STARLINK-5443,1 54781U 22175Z   23140.78026011  .00015774  00000-0  10065-2 0  9995,2 54781  53.2162 305.6455 0001715 101.8715 258.2469 15.08855994 25558,6917.832,95.437,540.883,538.51,0.0
54781.0,STARLINK-5443,PAYLOAD,2023-05-21 14:00:01,15.08859503,0.0001166,53.2167,302.0401,101.1219,303.5614,-0.0028189,-0.00044894,0.0,0 STARLINK-5443,1 54781U 22175Z   23141.58334491 -.00044894  00000-0 -28189-2 0  9991,2 54781  53.2167 302.0401 0001166 101.1219 303.5614 15.08859503 23517,6917.821,95.436,540.492,538.879,0.0
54781.0,STARLINK-5443,PAYLOAD,2023-05-22 00:00:00,15.08819945,9.79e-05,53.2166,300.1703,89.1462,60.0296,0.0012581,0.0001978,0.0,0 STARLINK-5443,1 54781U 22175Z   23142.00001157  .00019780  00000-0  12581-2 0  9992,2 54781  53.2166 300.1703 0000979  89.1462  60.0296 15.08819945  1306,6917.942,95.439,540.484,539.129,0.0
54781.0,STARLINK-5443,PAYLOAD,2023-05-22 04:06:40,15.08838951,0.0001155,53.2163,299.4006,98.5004,261.6119,0.00090491,0.00014143,0.0,0 STARLINK-5443,1 54781U 22175Z   23142.17130710  .00014143  00000-0  90491-3 0  9993,2 54781  53.2163 299.4006 0001155  98.5004 261.6119 15.08838951 23600,6917.884,95.438,540.548,538.95,0.0
54781.0,STARLINK-5443,PAYLOAD,2023-05-22 16:49:46,15.08846468,0.0001172,53.2166,297.0216,96.3829,263.7296,0.00086864,0.00013566,0.0,0 STARLINK-5443,1 54781U 22175Z   23142.70122818  .00013566  00000-0  86864-3 0  9999,2 54781  53.2166 297.0216 0001172  96.3829 263.7296 15.08846468 25849,6917.861,95.437,540.536,538.915,0.0
54781.0,STARLINK-5443,PAYLOAD,2023-05-23 10:19:00,15.08847301,0.0001166,53.2166,293.7507,83.7803,276.3322,0.00057808,8.926e-05,0.0,0 STARLINK-5443,1 54781U 22175Z   23143.42986922  .00008926  00000-0  57808-3 0  9993,2 54781  53.2166 293.7507 0001166  83.7803 276.3322 15.08847301 23799,6917.858,95.437,540.53,538.916,0.0
54781.0,STARLINK-5443,PAYLOAD,2023-05-23 16:40:33,15.08847744,0.0001236,53.2171,292.5581,99.571,260.5422,0.00038257,5.807e-05,0.0,0 STARLINK-5443,1 54781U 22175Z   23143.69482760  .00005807  00000-0  38257-3 0  9995,2 54781  53.2171 292.5581 0001236  99.5710 260.5422 15.08847744 25995,6917.857,95.437,540.577,538.867,0.0
54781.0,STARLINK-5443,PAYLOAD,2023-05-24 10:09:47,15.08841888,0.0001166,53.2175,289.2908,98.9062,261.2062,0.00018987,2.735e-05,0.0,0 STARLINK-5443,1 54781U 22175Z   23144.42346945  .00002735  00000-0  18987-3 0  9996,2 54781  53.2175 289.2908 0001166  98.9062 261.2062 15.08841888 23944,6917.875,95.437,540.546,538.933,0.0
54781.0,STARLINK-5443,PAYLOAD,2023-05-24 14:55:57,15.08841001,0.0001195,53.2179,288.4002,97.0746,263.0382,0.0001092,1.451e-05,0.0,0 STARLINK-5443,1 54781U 22175Z   23144.62219013  .00001451  00000-0  10920-3 0  9996,2 54781  53.2179 288.4002 0001195  97.0746 263.0382 15.08841001 26131,6917.877,95.437,540.569,538.916,0.0
54781.0,STARLINK-5443,PAYLOAD,2023-05-25 14:46:43,15.08849803,0.0001234,53.2185,283.9421,103.6701,256.4428,-0.00012357,-2.254e-05,0.0,0 STARLINK-5443,1 54781U 22175Z   23145.61578494 -.00002254  00000-0 -12357-3 0  9997,2 54781  53.2185 283.9421 0001234 103.6701 256.4428 15.08849803 24124,6917.85,95.437,540.569,538.862,0.0
54781.0,STARLINK-5443,PAYLOAD,2023-05-26 13:02:08,15.08839222,0.0001302,53.2183,279.779,105.1313,254.9823,4.1189e-05,3.68e-06,0.0,0 STARLINK-5443,1 54781U 22175Z   23146.54315057  .00000368  00000-0  41189-4 0  9992,2 54781  53.2183 279.7790 0001302 105.1313 254.9823 15.08839222 26427,6917.883,95.438,540.648,538.847,0.0
54781.0,STARLINK-5443,PAYLOAD,2023-05-26 16:12:54,15.08840281,0.0001221,53.2179,279.1846,101.092,259.021,4.6223e-05,4.48e-06,0.0,0 STARLINK-5443,1 54781U 22175Z   23146.67563008  .00000448  00000-0  46223-4 0  9990,2 54781  53.2179 279.1846 0001221 101.0920 259.0210 15.08840281 26442,6917.88,95.438,540.589,538.9,0.0
54781.0,STARLINK-5443,PAYLOAD,2023-05-27 17:39:04,15.08841231,0.0001098,53.2182,274.4233,77.9308,282.1807,8.6251e-05,1.085e-05,0.0,0 STARLINK-5443,1 54781U 22175Z   23147.73547246  .00001085  00000-0  86251-4 0  9997,2 54781  53.2182 274.4233 0001098  77.9308 282.1807 15.08841231 24440,6917.877,95.437,540.501,538.982,0.0
54781.0,STARLINK-5443,PAYLOAD,2023-05-28 01:36:00,15.088423,0.0001062,53.2182,272.9374,80.6669,279.4443,0.00010513,1.386e-05,0.0,0 STARLINK-5443,1 54781U 22175Z   23148.06667105  .00001386  00000-0  10513-3 0  9992,2 54781  53.2182 272.9374 0001062  80.6669 279.4443 15.08842300 26659,6917.873,95.437,540.473,539.004,0.0
54781.0,STARLINK-5443,PAYLOAD,2023-05-28 15:54:28,15.08849374,0.0001049,53.2174,270.2604,82.8063,277.3049,0.00015019,2.104e-05,0.0,0 STARLINK-5443,1 54781U 22175Z   23148.66282515  .00002104  00000-0  15019-3 0  9991,2 54781  53.2174 270.2604 0001049  82.8063 277.3049 15.08849374 26741,6917.852,95.437,540.442,538.991,0.0
54781.0,STARLINK-5443,PAYLOAD,2023-05-29 14:09:52,15.08843574,9.96e-05,53.2173,266.0969,87.2353,272.8753,5.1637e-05,5.34e-06,0.0,0 STARLINK-5443,1 54781U 22175Z   23149.59018868  .00000534  00000-0  51637-4 0  9994,2 54781  53.2173 266.0969 0000996  87.2353 272.8753 15.08843574 26881,6917.869,95.437,540.423,539.045,0.0
54781.0,STARLINK-5443,PAYLOAD,2023-05-29 17:20:38,15.088452,9.97e-05,53.2171,265.5016,91.5389,268.5717,5.9423e-05,6.58e-06,0.0,0 STARLINK-5443,1 54781U 22175Z   23149.72266661  .00000658  00000-0  59423-4 0  9993,2 54781  53.2171 265.5016 0000997  91.5389 268.5717 15.08845200 24747,6917.864,95.437,540.419,539.04,0.0
